COMMENT,ORIGINATOR,NORAD_CAT_ID,OBJECT_NAME,OBJECT_TYPE,CLASSIFICATION_TYPE,INTLDES,EPOCH,EPOCH_MICROSECONDS,MEAN_MOTION,ECCENTRICITY,INCLINATION,RA_OF_ASC_NODE,ARG_OF_PERICENTER,MEAN_ANOMALY,EPHEMERIS_TYPE,ELEMENT_SET_NO,REV_AT_EPOCH,BSTAR,MEAN_MOTION_DOT,MEAN_MOTION_DDOT,FILE,TLE_LINE0,TLE_LINE1,TLE_LINE2,OBJECT_ID,OBJECT_NUMBER,SEMIMAJOR_AXIS,PERIOD,APOGEE,PERIGEE,DECAYED
"GENERATED VIA SPACETRACK.ORG API","18 SPCS","56232","FENGYUN 3G","PAYLOAD","U","23055A","2023-06-09 21:03:21","287808","15.53085998","0.0004617","49.9982","275.1908","1.9681","358.1304","0","999","851","0.00042871","0.00026996","0","3929125","0 FENGYUN 3G","1 56232U 23055A   23160.87732972  .00026996  00000-0  42871-3 0  9997","2 56232  49.9982 275.1908 0004617   1.9681 358.1304 15.53085998  8517","2023-055A","56232","6785.859","92.719","410.857","404.591","0"
"GENERATED VIA SPACETRACK.ORG API","18 SPCS","56232","FENGYUN 3G","PAYLOAD","U","23055A","2023-06-10 04:46:35","491296","15.53104919","0.0004585","49.9982","273.532","3.2277","356.8719","0","999","856","0.00044288","0.00027926","0","3929415","0 FENGYUN 3G","1 56232U 23055A   23161.19902189  .00027926  00000-0  44288-3 0  9990","2 56232  49.9982 273.5320 0004585   3.2277 356.8719 15.53104919  8562","2023-055A","56232","6785.804","92.717","410.780","404.558","0"
"GENERATED VIA SPACETRACK.ORG API","18 SPCS","56232","FENGYUN 3G","PAYLOAD","U","23055A","2023-06-10 09:24:31","873248","15.53116981","0.00046","49.9983","272.5371","4.1083","355.9921","0","999","859","0.0004634","0.0002926","0","3929688","0 FENGYUN 3G","1 56232U 23055A   23161.39203557  .00029260  00000-0  46340-3 0  9999","2 56232  49.9983 272.5371 0004600   4.1083 355.9921 15.53116981  8591","2023-055A","56232","6785.769","92.717","410.755","404.512","0"
"GENERATED VIA SPACETRACK.ORG API","18 SPCS","56232","FENGYUN 3G","PAYLOAD","U","23055A","2023-06-10 14:02:28","129056","15.53126797","0.0004612","49.9984","271.5422","4.7208","355.3802","0","999","862","0.0004528","0.00028588","0","3929709","0 FENGYUN 3G","1 56232U 23055A   23161.58504779  .00028588  00000-0  45280-3 0  9994","2 56232  49.9984 271.5422 0004612   4.7208 355.3802 15.53126797  8628","2023-055A","56232","6785.740","92.716","410.735","404.476","0"
"GENERATED VIA SPACETRACK.ORG API","18 SPCS","56232","FENGYUN 3G","PAYLOAD","U","23055A","2023-06-10 17:07:45","577344","15.53133763","0.0004624","49.9984","270.8789","5.1777","354.9237","0","999","864","0.00044908","0.00028355","0","3929950","0 FENGYUN 3G","1 56232U 23055A   23161.71372196  .00028355  00000-0  44908-3 0  9993","2 56232  49.9984 270.8789 0004624   5.1777 354.9237 15.53133763  8645","2023-055A","56232","6785.720","92.716","410.723","404.447","0"
"GENERATED VIA SPACETRACK.ORG API","18 SPCS","56232","FENGYUN 3G","PAYLOAD","U","23055A","2023-06-10 18:40:24","253536","15.53138875","0.0004636","49.9983","270.547","5.2067","354.8948","0","999","865","0.0004633","0.00029277","0","3929969","0 FENGYUN 3G","1 56232U 23055A   23161.77805849  .00029277  00000-0  46330-3 0  9990","2 56232  49.9983 270.5470 0004636   5.2067 354.8948 15.53138875  8652","2023-055A","56232","6785.705","92.715","410.716","404.424","0"
"GENERATED VIA SPACETRACK.ORG API","18 SPCS","56232","FENGYUN 3G","PAYLOAD","U","23055A","2023-06-11 03:56:16","150848","15.53161749","0.00046","49.9985","268.5562","6.8348","353.2681","0","999","871","0.00048052","0.00030413","0","3930221","0 FENGYUN 3G","1 56232U 23055A   23162.16407582  .00030413  00000-0  48052-3 0  9993","2 56232  49.9985 268.5562 0004600   6.8348 353.2681 15.53161749  8713","2023-055A","56232","6785.638","92.714","410.625","404.382","0"
"GENERATED VIA SPACETRACK.ORG API","18 SPCS","56232","FENGYUN 3G","PAYLOAD","U","23055A","2023-06-11 08:34:11","927136","15.53172904","0.0004605","49.9985","267.5611","7.8543","352.2495","0","999","874","0.00047313","0.00029948","0","3930508","0 FENGYUN 3G","1 56232U 23055A   23162.35708249  .00029948  00000-0  47313-3 0  9998","2 56232  49.9985 267.5611 0004605   7.8543 352.2495 15.53172904  8740","2023-055A","56232","6785.606","92.713","410.596","404.346","0"
"GENERATED VIA SPACETRACK.ORG API","18 SPCS","56232","FENGYUN 3G","PAYLOAD","U","23055A","2023-06-11 13:12:07","577280","15.53184015","0.0004654","49.9985","266.5662","8.6406","351.4641","0","999","877","0.00047835","0.00030298","0","3930529","0 FENGYUN 3G","1 56232U 23055A   23162.55008770  .00030298  00000-0  47835-3 0  9991","2 56232  49.9985 266.5662 0004654   8.6406 351.4641 15.53184015  8779","2023-055A","56232","6785.574","92.713","410.597","404.281","0"
"GENERATED VIA SPACETRACK.ORG API","18 SPCS","56232","FENGYUN 3G","PAYLOAD","U","23055A","2023-06-11 16:17:24","604800","15.53191914","0.0004673","49.9985","265.9027","9.1666","350.9386","0","999","879","0.00047931","0.00030368","0","3930724","0 FENGYUN 3G","1 56232U 23055A   23162.67875700  .00030368  00000-0  47931-3 0  9994","2 56232  49.9985 265.9027 0004673   9.1666 350.9386 15.53191914  8790","2023-055A","56232","6785.551","92.712","410.586","404.245","0"
"GENERATED VIA SPACETRACK.ORG API","18 SPCS","56232","FENGYUN 3G","PAYLOAD","U","23055A","2023-06-11 20:55:20","24256","15.53204497","0.0004666","49.9983","264.9071","9.8727","350.2331","0","999","882","0.00048108","0.00030497","0","3930737","0 FENGYUN 3G","1 56232U 23055A   23162.87175954  .00030497  00000-0  48108-3 0  9990","2 56232  49.9983 264.9071 0004666   9.8727 350.2331 15.53204497  8821","2023-055A","56232","6785.514","92.712","410.545","404.213","0"
"GENERATED VIA SPACETRACK.ORG API","18 SPCS","56232","FENGYUN 3G","PAYLOAD","U","23055A","2023-06-12 03:05:53","720736","15.5321859","0.0004619","49.9983","263.5798","11.1748","348.9321","0","999","886","0.00045136","0.00028591","0","3931036","0 FENGYUN 3G","1 56232U 23055A   23163.12909399  .00028591  00000-0  45136-3 0  9997","2 56232  49.9983 263.5798 0004619  11.1748 348.9321 15.53218590  8865","2023-055A","56232","6785.473","92.711","410.472","404.204","0"
"GENERATED VIA SPACETRACK.ORG API","18 SPCS","56232","FENGYUN 3G","PAYLOAD","U","23055A","2023-06-12 09:16:27","226272","15.53233769","0.0004618","49.9982","262.2529","12.4998","347.6084","0","999","890","0.00044806","0.00028394","0","3931257","0 FENGYUN 3G","1 56232U 23055A   23163.38642623  .00028394  00000-0  44806-3 0  9993","2 56232  49.9982 262.2529 0004618  12.4998 347.6084 15.53233769  8904","2023-055A","56232","6785.429","92.710","410.427","404.160","0"
"GENERATED VIA SPACETRACK.ORG API","18 SPCS","56232","FENGYUN 3G","PAYLOAD","U","23055A","2023-06-12 12:21:43","903872","15.53239716","0.0004641","49.9983","261.5896","12.9384","347.1701","0","999","892","0.00042655","0.0002701","0","3931287","0 FENGYUN 3G","1 56232U 23055A   23163.51509148  .00027010  00000-0  42655-3 0  9996","2 56232  49.9983 261.5896 0004641  12.9384 347.1701 15.53239716  8925","2023-055A","56232","6785.411","92.709","410.425","404.127","0"
"GENERATED VIA SPACETRACK.ORG API","18 SPCS","56232","FENGYUN 3G","PAYLOAD","U","23055A","2023-06-12 20:04:55","356384","15.53260244","0.0004641","49.9981","259.9305","13.9854","346.1241","0","999","897","0.00046479","0.00029505","0","3931596","0 FENGYUN 3G","1 56232U 23055A   23163.83675181  .00029505  00000-0  46479-3 0  9991","2 56232  49.9981 259.9305 0004641  13.9854 346.1241 15.53260244  8975","2023-055A","56232","6785.352","92.708","410.366","404.068","0"
"GENERATED VIA SPACETRACK.ORG API","18 SPCS","56232","FENGYUN 3G","PAYLOAD","U","23055A","2023-06-12 20:04:55","356384","15.53260244","0.0004641","49.9981","259.9305","13.9854","346.1241","0","999","897","0.00046479","0.00029505","0","3931605","0 FENGYUN 3G","1 56232U 23055A   23163.83675181  .00029505  00000-0  46479-3 0  9991","2 56232  49.9981 259.9305 0004641  13.9854 346.1241 15.53260244  8975","2023-055A","56232","6785.352","92.708","410.366","404.068","0"
"GENERATED VIA SPACETRACK.ORG API","18 SPCS","56232","FENGYUN 3G","PAYLOAD","U","23055A","2023-06-13 03:48:06","490080","15.53275538","0.0004602","49.9982","258.2713","15.4769","344.6338","0","999","902","0.00042021","0.00026635","0","3931876","0 FENGYUN 3G","1 56232U 23055A   23164.15840845  .00026635  00000-0  42021-3 0  9998","2 56232  49.9982 258.2713 0004602  15.4769 344.6338 15.53275538  9029","2023-055A","56232","6785.307","92.707","410.295","404.049","0"
"GENERATED VIA SPACETRACK.ORG API","18 SPCS","56232","FENGYUN 3G","PAYLOAD","U","23055A","2023-06-13 11:31:17","323968","15.53294558","0.000464","49.9983","256.6131","16.8226","343.2894","0","999","907","0.00045507","0.00028912","0","3932089","0 FENGYUN 3G","1 56232U 23055A   23164.48006162  .00028912  00000-0  45507-3 0  9992","2 56232  49.9983 256.6131 0004640  16.8226 343.2894 15.53294558  9071","2023-055A","56232","6785.252","92.706","410.265","403.968","0"
"GENERATED VIA SPACETRACK.ORG API","18 SPCS","56232","FENGYUN 3G","PAYLOAD","U","23055A","2023-06-13 13:03:55","449792","15.53298175","0.0004643","49.9983","256.2815","17.0838","343.0285","0","999","908","0.00045523","0.00028926","0","3932134","0 FENGYUN 3G","1 56232U 23055A   23164.54439178  .00028926  00000-0  45523-3 0  9999","2 56232  49.9983 256.2815 0004643  17.0838 343.0285 15.53298175  9083","2023-055A","56232","6785.241","92.706","410.257","403.956","0"
"GENERATED VIA SPACETRACK.ORG API","18 SPCS","56232","FENGYUN 3G","PAYLOAD","U","23055A","2023-06-13 19:14:27","799296","15.53314077","0.0004634","49.9982","254.954","17.8645","342.2484","0","999","912","0.00046197","0.0002938","0","3932324","0 FENGYUN 3G","1 56232U 23055A   23164.80171064  .00029380  00000-0  46197-3 0  9998","2 56232  49.9982 254.9540 0004634  17.8645 342.2484 15.53314077  9123","2023-055A","56232","6785.195","92.705","410.204","403.916","0"
